[{"OBJECT_NAME":"STARLINK-30516","OBJECT_ID":"2023-151W","EPOCH":"2026-03-09T04:28:17.903712","MEAN_MOTION":15.02532534,"ECCENTRICITY":0.00013964,"INCLINATION":43.0067,"RA_OF_ASC_NODE":354.6049,"ARG_OF_PERICENTER":263.8526,"MEAN_ANOMALY":96.2158,"EPHEMERIS_TYPE":0,"CLASSIFICATION_TYPE":"U","NORAD_CAT_ID":57984,"ELEMENT_SET_NO":999,"REV_AT_EPOCH":13550,"BSTAR":-5.3591274e-5,"MEAN_MOTION_DOT":-9.27e-6,"MEAN_MOTION_DDOT":0},{"OBJECT_NAME":"HAMSAT (VO-52)","OBJECT_ID":"2005-017B","EPOCH":"2026-03-09T22:34:09.009120","MEAN_MOTION":15.08773202,"ECCENTRICITY":0.00200128,"INCLINATION":97.9995,"RA_OF_ASC_NODE":87.8294,"ARG_OF_PERICENTER":17.3795,"MEAN_ANOMALY":342.8113,"EPHEMERIS_TYPE":0,"CLASSIFICATION_TYPE":"U","NORAD_CAT_ID":28650,"ELEMENT_SET_NO":999,"REV_AT_EPOCH":13179,"BSTAR":0.00045282519,"MEAN_MOTION_DOT":7.08e-5,"MEAN_MOTION_DDOT":0}]
